LANDSAT 9               
1 49260U 21088A   24029.63492421  .00000736  00000+0  17334-3 0  9994
2 49260  98.2045 101.5157 0000878  94.8454 265.2845 14.57102542124378
